[{"OBJECT_NAME":"STARLINK-31905","OBJECT_ID":"2024-100M","EPOCH":"2026-03-09T03:40:59.554848","MEAN_MOTION":15.27574954,"ECCENTRICITY":0.00011304,"INCLINATION":43.0007,"RA_OF_ASC_NODE":125.0691,"ARG_OF_PERICENTER":220.3311,"MEAN_ANOMALY":139.7457,"EPHEMERIS_TYPE":0,"CLASSIFICATION_TYPE":"U","NORAD_CAT_ID":59896,"ELEMENT_SET_NO":999,"REV_AT_EPOCH":10111,"BSTAR":-1.2087941e-5,"MEAN_MOTION_DOT":-5.95e-6,"MEAN_MOTION_DDOT":0},{"OBJECT_NAME":"ION SCV-017","OBJECT_ID":"2025-052W","EPOCH":"2026-03-09T17:11:44.577024","MEAN_MOTION":15.26881798,"ECCENTRICITY":0.0023746,"INCLINATION":97.4016,"RA_OF_ASC_NODE":324.7516,"ARG_OF_PERICENTER":44.9875,"MEAN_ANOMALY":315.3282,"EPHEMERIS_TYPE":0,"CLASSIFICATION_TYPE":"U","NORAD_CAT_ID":63230,"ELEMENT_SET_NO":999,"REV_AT_EPOCH":5485,"BSTAR":0.00024539061,"MEAN_MOTION_DOT":6.457e-5,"MEAN_MOTION_DDOT":0}]
